ONEWEB-0706             
1 61611U 24188T   25203.42409063  .00009136  00000+0  26129-1 0  9997
2 61611  87.8812 102.0404 0001692  65.9533 294.1771 13.10318966 38304
ONEWEB-0707             
1 61612U 24188U   25203.43080806 -.00000447  00000+0 -13179-2 0  9999
2 61612  87.8803 102.0059 0001672  56.9151 303.2137 13.10365853 38175
ONEWEB-0708             
1 61613U 24188V   25202.76183263 -.00000338  00000+0 -10038-2 0  9996
2 61613  87.8858 102.1643 0001268  55.3214 304.8032 13.10375648 40021
